start=new Date('2022-09-01T00:00:00.000Z').valueOf();
sats=[{"APOAPSIS":"541.096","SEMIMAJOR_AXIS":"6917.906","ARG_OF_PERICENTER":"51.7896","OBJECT_ID":"2021-104BA","PERIOD":"95.438","OBJECT_TYPE":"PAYLOAD","CLASSIFICATION_TYPE":"U","SITE":"AFETR","ECCENTRICITY":"0.00019160","ELEMENT_SET_NO":"999","REV_AT_EPOCH":"4564","MEAN_ANOMALY":"308.3268","TIME_SYSTEM":"UTC","OBJECT_NAME":"STARLINK-3124","PERIAPSIS":"538.446","DECAY_DATE":null,"COUNTRY_CODE":"US","MEAN_MOTION_DOT":"-0.00000348","BSTAR":"-0.00000376820000","LAUNCH_DATE":"2021-11-13","INCLINATION":"53.2153","TLE_LINE2":"2 49456  53.2153 234.0199 0001916  51.7896 308.3268 15.08831630 45644","NORAD_CAT_ID":"49456","CENTER_NAME":"EARTH","MEAN_MOTION":"15.08831630","TLE_LINE1":"1 49456U 21104BA  22243.28649069 -.00000348  00000-0 -37682-5 0  9991","EPHEMERIS_TYPE":"0","RCS_SIZE":"LARGE","EPOCH":"2022-08-31T06:52:32.795616","MEAN_MOTION_DDOT":"0.0000000000000","REF_FRAME":"TEME","MEAN_ELEMENT_THEORY":"SGP4","GP_ID":"211397614","FILE":"3552546","RA_OF_ASC_NODE":"234.0199"},{"OBJECT_ID":"2021-104BB","ARG_OF_PERICENTER":"61.7792","PERIOD":"95.438","OBJECT_TYPE":"PAYLOAD","APOAPSIS":"541.016","SEMIMAJOR_AXIS":"6917.892","TIME_SYSTEM":"UTC","PERIAPSIS":"538.498","OBJECT_NAME":"STARLINK-3132","DECAY_DATE":null,"COUNTRY_CODE":"US","MEAN_MOTION_DOT":"-0.00002231","CLASSIFICATION_TYPE":"U","SITE":"AFETR","ELEMENT_SET_NO":"999","ECCENTRICITY":"0.00018200","REV_AT_EPOCH":"4457","MEAN_ANOMALY":"298.3384","NORAD_CAT_ID":"49457","CENTER_NAME":"EARTH","MEAN_MOTION":"15.08836275","TLE_LINE1":"1 49457U 21104BB  22243.27544977 -.00002231  00000-0 -12212-3 0  9996","EPHEMERIS_TYPE":"0","RCS_SIZE":"LARGE","EPOCH":"2022-08-31T06:36:38.860128","MEAN_MOTION_DDOT":"0.0000000000000","REF_FRAME":"TEME","BSTAR":"-0.00012212000000","INCLINATION":"53.2178","LAUNCH_DATE":"2021-11-13","TLE_LINE2":"2 49457  53.2178 234.0699 0001820  61.7792 298.3384 15.08836275 44575","FILE":"3552511","RA_OF_ASC_NODE":"234.0699","MEAN_ELEMENT_THEORY":"SGP4","GP_ID":"211395365"},{"MEAN_ELEMENT_THEORY":"SGP4","GP_ID":"211394113","FILE":"3552511","RA_OF_ASC_NODE":"234.0336","BSTAR":"0.00011486000000","INCLINATION":"53.2178","LAUNCH_DATE":"2021-11-13","TLE_LINE2":"2 49458  53.2178 234.0336 0002196  53.1964 306.9229 15.08839103 44574","NORAD_CAT_ID":"49458","CENTER_NAME":"EARTH","MEAN_MOTION":"15.08839103","TLE_LINE1":"1 49458U 21104BC  22243.28282010  .00001540  00000-0  11486-3 0  9997","EPHEMERIS_TYPE":"0","RCS_SIZE":"LARGE","EPOCH":"2022-08-31T06:47:15.656640","REF_FRAME":"TEME","MEAN_MOTION_DDOT":"0.0000000000000","SITE":"AFETR","CLASSIFICATION_TYPE":"U","REV_AT_EPOCH":"4457","ELEMENT_SET_NO":"999","ECCENTRICITY":"0.00021960","MEAN_ANOMALY":"306.9229","TIME_SYSTEM":"UTC","PERIAPSIS":"538.229","OBJECT_NAME":"STARLINK-3156","DECAY_DATE":null,"COUNTRY_CODE":"US","MEAN_MOTION_DOT":"0.00001540","APOAPSIS":"541.267","SEMIMAJOR_AXIS":"6917.883","OBJECT_ID":"2021-104BC","ARG_OF_PERICENTER":"53.1964","PERIOD":"95.438","OBJECT_TYPE":"PAYLOAD"},{"MEAN_ANOMALY":"299.5347","REV_AT_EPOCH":"4458","ECCENTRICITY":"0.00016610","ELEMENT_SET_NO":"999","SITE":"AFETR","CLASSIFICATION_TYPE":"U","MEAN_MOTION_DOT":"-0.00000733","COUNTRY_CODE":"US","DECAY_DATE":null,"OBJECT_NAME":"STARLINK-3141","PERIAPSIS":"538.633","TIME_SYSTEM":"UTC","SEMIMAJOR_AXIS":"6917.917","APOAPSIS":"540.931","PERIOD":"95.438","OBJECT_TYPE":"PAYLOAD","OBJECT_ID":"2021-104BD","ARG_OF_PERICENTER":"60.5811","GP_ID":"211393863","MEAN_ELEMENT_THEORY":"SGP4","RA_OF_ASC_NODE":"233.7876","FILE":"3552511","TLE_LINE2":"2 49459  53.2160 233.7876 0001661  60.5811 299.5347 15.08828110 44585","LAUNCH_DATE":"2021-11-13","INCLINATION":"53.2160","BSTAR":"-0.00002799300000","MEAN_MOTION_DDOT":"0.0000000000000","REF_FRAME":"TEME","RCS_SIZE":"LARGE","EPHEMERIS_TYPE":"0","EPOCH":"2022-08-31T08:06:44.121024","TLE_LINE1":"1 49459U 21104BD  22243.33801066 -.00000733  00000-0 -27993-4 0  9998","MEAN_MOTION":"15.08828110","CENTER_NAME":"EARTH","NORAD_CAT_ID":"49459"},{"CLASSIFICATION_TYPE":"U","SITE":"AFETR","ELEMENT_SET_NO":"999","REV_AT_EPOCH":"4458","ECCENTRICITY":"0.00019190","MEAN_ANOMALY":"300.4885","TIME_SYSTEM":"UTC","DECAY_DATE":null,"OBJECT_NAME":"STARLINK-3140","PERIAPSIS":"538.453","MEAN_MOTION_DOT":"-0.00000275","COUNTRY_CODE":"US","APOAPSIS":"541.108","SEMIMAJOR_AXIS":"6917.915","OBJECT_ID":"2021-104BE","ARG_OF_PERICENTER":"59.6297","PERIOD":"95.438","OBJECT_TYPE":"PAYLOAD","MEAN_ELEMENT_THEORY":"SGP4","GP_ID":"211395115","FILE":"3552511","RA_OF_ASC_NODE":"233.5135","BSTAR":"0.00000085655000","INCLINATION":"53.2155","LAUNCH_DATE":"2021-11-13","TLE_LINE2":"2 49460  53.2155 233.5135 0001919  59.6297 300.4885 15.08828618 44582","NORAD_CAT_ID":"49460","CENTER_NAME":"EARTH","MEAN_MOTION":"15.08828618","EPOCH":"2022-08-31T09:36:49.454496","RCS_SIZE":"LARGE","EPHEMERIS_TYPE":"0","TLE_LINE1":"1 49460U 21104BE  22243.40057239 -.00000275  00000-0  85655-6 0  9994","MEAN_MOTION_DDOT":"0.0000000000000","REF_FRAME":"TEME"},{"MEAN_ELEMENT_THEORY":"SGP4","GP_ID":"211394881","FILE":"3552511","RA_OF_ASC_NODE":"165.0643","BSTAR":"-0.00001961600000","INCLINATION":"53.2172","LAUNCH_DATE":"2021-12-02","TLE_LINE2":"2 49724  53.2172 165.0643 0002098  65.2618 294.8592 15.08838538 41294","CENTER_NAME":"EARTH","NORAD_CAT_ID":"49724","MEAN_MOTION":"15.08838538","TLE_LINE1":"1 49724U 21115A   22243.05099759 -.00000600  00000-0 -19616-4 0  9998","RCS_SIZE":"LARGE","EPOCH":"2022-08-31T01:13:26.191776","EPHEMERIS_TYPE":"0","REF_FRAME":"TEME","MEAN_MOTION_DDOT":"0.0000000000000","CLASSIFICATION_TYPE":"U","SITE":"AFETR","ECCENTRICITY":"0.00020980","ELEMENT_SET_NO":"999","REV_AT_EPOCH":"4129","MEAN_ANOMALY":"294.8592","TIME_SYSTEM":"UTC","OBJECT_NAME":"STARLINK-3219","PERIAPSIS":"538.298","DECAY_DATE":null,"COUNTRY_CODE":"US","MEAN_MOTION_DOT":"-0.00000600","APOAPSIS":"541.201","SEMIMAJOR_AXIS":"6917.885","OBJECT_ID":"2021-115A","ARG_OF_PERICENTER":"65.2618","OBJECT_TYPE":"PAYLOAD","PERIOD":"95.438"},{"GP_ID":"211425350","MEAN_ELEMENT_THEORY":"SGP4","FILE":"3552761","RA_OF_ASC_NODE":"161.6571","BSTAR":"0.00023875000000","TLE_LINE2":"2 49725  53.2175 161.6571 0001636  54.1013 306.0131 15.08837540 41414","INCLINATION":"53.2175","LAUNCH_DATE":"2021-12-02","MEAN_MOTION":"15.08837540","CENTER_NAME":"EARTH","NORAD_CAT_ID":"49725","MEAN_MOTION_DDOT":"0.0000000000000","REF_FRAME":"TEME","EPOCH":"2022-08-31T19:30:23.650272","RCS_SIZE":"LARGE","EPHEMERIS_TYPE":"0","TLE_LINE1":"1 49725U 21115B   22243.81277373  .00003513  00000-0  23875-3 0  9998","SITE":"AFETR","CLASSIFICATION_TYPE":"U","MEAN_ANOMALY":"306.0131","ECCENTRICITY":"0.00016360","ELEMENT_SET_NO":"999","REV_AT_EPOCH":"4141","DECAY_DATE":null,"OBJECT_NAME":"STARLINK-3218","PERIAPSIS":"538.621","TIME_SYSTEM":"UTC","MEAN_MOTION_DOT":"0.00003513","COUNTRY_CODE":"US","APOAPSIS":"540.885","SEMIMAJOR_AXIS":"6917.888","OBJECT_ID":"2021-115B","ARG_OF_PERICENTER":"54.1013","OBJECT_TYPE":"PAYLOAD","PERIOD":"95.438"},{"PERIOD":"95.437","OBJECT_TYPE":"PAYLOAD","OBJECT_ID":"2021-115C","ARG_OF_PERICENTER":"61.4088","SEMIMAJOR_AXIS":"6917.867","APOAPSIS":"541.028","MEAN_MOTION_DOT":"0.00000548","COUNTRY_CODE":"US","DECAY_DATE":null,"OBJECT_NAME":"STARLINK-3237","PERIAPSIS":"538.436","TIME_SYSTEM":"UTC","MEAN_ANOMALY":"298.7092","ECCENTRICITY":"0.00018730","REV_AT_EPOCH":"4117","ELEMENT_SET_NO":"999","CLASSIFICATION_TYPE":"U","SITE":"AFETR","REF_FRAME":"TEME","MEAN_MOTION_DDOT":"0.0000000000000","EPOCH":"2022-08-31T04:16:12.457344","RCS_SIZE":"LARGE","EPHEMERIS_TYPE":"0","TLE_LINE1":"1 49726U 21115C   22243.17792196  .00000548  00000-0  52503-4 0  9999","MEAN_MOTION":"15.08844337","NORAD_CAT_ID":"49726","CENTER_NAME":"EARTH","TLE_LINE2":"2 49726  53.2172 174.5101 0001873  61.4088 298.7092 15.08844337 41178","LAUNCH_DATE":"2021-12-02","INCLINATION":"53.2172","BSTAR":"0.00005250300000","RA_OF_ASC_NODE":"174.5101","FILE":"3552511","GP_ID":"211394380","MEAN_ELEMENT_THEORY":"SGP4"},{"FILE":"3552511","RA_OF_ASC_NODE":"174.4918","GP_ID":"211394631","MEAN_ELEMENT_THEORY":"SGP4","MEAN_MOTION":"15.08829583","NORAD_CAT_ID":"49727","CENTER_NAME":"EARTH","MEAN_MOTION_DDOT":"0.0000000000000","REF_FRAME":"TEME","TLE_LINE1":"1 49727U 21115D   22243.18160632 -.00000464  00000-0 -11051-4 0  9997","RCS_SIZE":"LARGE","EPOCH":"2022-08-31T04:21:30.786048","EPHEMERIS_TYPE":"0","BSTAR":"-0.00001105100000","TLE_LINE2":"2 49727  53.2165 174.4918 0001875  60.9371 299.1808 15.08829583 41173","LAUNCH_DATE":"2021-12-02","INCLINATION":"53.2165","PERIAPSIS":"538.480","OBJECT_NAME":"STARLINK-3242","DECAY_DATE":null,"TIME_SYSTEM":"UTC","COUNTRY_CODE":"US","MEAN_MOTION_DOT":"-0.00000464","SITE":"AFETR","CLASSIFICATION_TYPE":"U","MEAN_ANOMALY":"299.1808","ECCENTRICITY":"0.00018750","ELEMENT_SET_NO":"999","REV_AT_EPOCH":"4117","ARG_OF_PERICENTER":"60.9371","OBJECT_ID":"2021-115D","PERIOD":"95.438","OBJECT_TYPE":"PAYLOAD","APOAPSIS":"541.074","SEMIMAJOR_AXIS":"6917.912"},{"FILE":"3552511","RA_OF_ASC_NODE":"174.7618","GP_ID":"211395382","MEAN_ELEMENT_THEORY":"SGP4","MEAN_MOTION":"15.08839486","CENTER_NAME":"EARTH","NORAD_CAT_ID":"49728","MEAN_MOTION_DDOT":"0.0000000000000","REF_FRAME":"TEME","TLE_LINE1":"1 49728U 21115E   22243.11904204 -.00001006  00000-0 -45103-4 0  9990","EPHEMERIS_TYPE":"0","RCS_SIZE":"LARGE","EPOCH":"2022-08-31T02:51:25.232256","BSTAR":"-0.00004510300000","TLE_LINE2":"2 49728  53.2159 174.7618 0002189  60.6238 299.4972 15.08839486 41162","LAUNCH_DATE":"2021-12-02","INCLINATION":"53.2159","OBJECT_NAME":"STARLINK-3240","PERIAPSIS":"538.233","DECAY_DATE":null,"TIME_SYSTEM":"UTC","COUNTRY_CODE":"US","MEAN_MOTION_DOT":"-0.00001006","CLASSIFICATION_TYPE":"U","SITE":"AFETR","MEAN_ANOMALY":"299.4972","REV_AT_EPOCH":"4116","ELEMENT_SET_NO":"999","ECCENTRICITY":"0.00021890","OBJECT_ID":"2021-115E","ARG_OF_PERICENTER":"60.6238","PERIOD":"95.438","OBJECT_TYPE":"PAYLOAD","APOAPSIS":"541.261","SEMIMAJOR_AXIS":"6917.882"}];
